FENGYUN 1C DEB          
1 31949U 99025CNA 17336.97330188  .00000084  00000-0  62236-4 0  9995
2 31949  98.7443  32.2305 0131067 335.3249  24.1690 14.13713866540590
